ONEWEB-0300             
1 49089U 21075Q   25354.55683192  .00000300  00000+0  79968-3 0  9997
2 49089  87.8934  26.1335 0002097  95.6974 264.4394 13.12394808211778
ONEWEB-0301             
1 49090U 21075R   25354.38825086  .00000425  00000+0  11470-2 0  9991
2 49090  87.8933  26.1689 0002149  94.7682 265.3692 13.12380607211116
ONEWEB-0302             
1 49091U 21075S   25354.45099168  .00000014  00000+0  32434-5 0  9994
2 49091  87.8932  26.1630 0001372  91.0114 269.1172 13.12457125211103
ONEWEB-0304             
1 49092U 21075T   25354.56646894  .00000101  00000+0  22723-3 0  9996
2 49092  87.9110  41.3802 0001742 102.8226 257.3100 13.17650187210050
ONEWEB-0305             
1 49093U 21075U   25354.18004152  .00000001  00000+0 -29772-4 0  9992
2 49093  87.9115  41.4344 0001763 113.5315 246.6002 13.17647393210034
ONEWEB-0308             
1 49094U 21075V   25354.13932243 -.00000022  00000+0 -95417-4 0  9992
2 49094  87.8935  26.2194 0001776  95.2026 264.9306 13.12496981211072
ONEWEB-0309             
1 49095U 21075W   25354.41122963  .00000045  00000+0  82891-4 0  9999
2 49095  87.9113  41.4042 0001372  94.4018 265.7270 13.17648030210030
ONEWEB-0310             
1 49096U 21075X   25354.53565855  .00000383  00000+0  10298-2 0  9999
2 49096  87.8922  26.1768 0001699  93.8394 266.2929 13.12408144211757
